NORAD_CAT_ID,OBJECT_NAME,OBJECT_TYPE,EPOCH,MEAN_MOTION,ECCENTRICITY,INCLINATION,RA_OF_ASC_NODE,ARG_OF_PERICENTER,MEAN_ANOMALY,BSTAR,MEAN_MOTION_DOT,MEAN_MOTION_DDOT,TLE_LINE0,TLE_LINE1,TLE_LINE2,SEMIMAJOR_AXIS,PERIOD,APOGEE,PERIGEE,DECAYED
52669.0,STARLINK-3972,PAYLOAD,2023-11-09 11:05:30,15.08860654,0.0001564,53.2186,15.43,101.5645,258.5523,0.00053486,8.239e-05,0.0,0 STARLINK-3972,1 52669U 22053P   23313.46215563  .00008239  00000-0  53486-3 0  9995,2 52669  53.2186  15.4300 0001564 101.5645 258.5523 15.08860654 82537,6917.817,95.436,540.764,538.6,0.0
52669.0,STARLINK-3972,PAYLOAD,2023-11-10 04:34:44,15.08851625,0.0001542,53.2184,12.1579,110.2603,249.8555,-3.9426e-05,-9.16e-06,0.0,0 STARLINK-3972,1 52669U 22053P   23314.19079080 -.00000916  00000-0 -39426-4 0  9993,2 52669  53.2184  12.1579 0001542 110.2603 249.8555 15.08851625 82642,6917.845,95.437,540.777,538.643,0.0
52669.0,STARLINK-3972,PAYLOAD,2023-11-10 10:56:16,15.08851089,0.0001412,53.2184,10.9725,98.576,261.5392,7.355e-05,8.83e-06,0.0,0 STARLINK-3972,1 52669U 22053P   23314.45575161  .00000883  00000-0  73550-4 0  9990,2 52669  53.2184  10.9725 0001412  98.5760 261.5392 15.08851089 82687,6917.846,95.437,540.688,538.735,0.0
52669.0,STARLINK-3972,PAYLOAD,2023-11-10 20:28:35,15.08850927,0.0001403,53.218,9.1882,95.5215,264.5937,-0.00013204,-2.389e-05,0.0,0 STARLINK-3972,1 52669U 22053P   23314.85318657 -.00002389  00000-0 -13204-3 0  9993,2 52669  53.2180   9.1882 0001403  95.5215 264.5937 15.08850927 82744,6917.847,95.437,540.683,538.741,0.0
52669.0,STARLINK-3972,PAYLOAD,2023-11-11 10:47:04,15.08841134,0.0001666,53.2197,6.5136,104.7596,255.3581,-8.6046e-05,-1.657e-05,0.0,0 STARLINK-3972,1 52669U 22053P   23315.44935229 -.00001657  00000-0 -86046-4 0  9991,2 52669  53.2197   6.5136 0001666 104.7596 255.3581 15.08841134 82834,6917.877,95.437,540.894,538.589,0.0
52669.0,STARLINK-3972,PAYLOAD,2023-11-11 12:22:26,15.08843274,0.0001596,53.2192,6.214,97.6428,262.4746,-5.865e-05,-1.221e-05,0.0,0 STARLINK-3972,1 52669U 22053P   23315.51558983 -.00001221  00000-0 -58650-4 0  9994,2 52669  53.2192   6.2140 0001596  97.6428 262.4746 15.08843274 82847,6917.87,95.437,540.839,538.631,0.0
52669.0,STARLINK-3972,PAYLOAD,2023-11-11 20:19:22,15.08838774,0.0001571,53.2191,4.7273,95.103,265.0142,-9.9585e-05,-1.873e-05,0.0,0 STARLINK-3972,1 52669U 22053P   23315.84679187 -.00001873  00000-0 -99585-4 0  9995,2 52669  53.2191   4.7273 0001571  95.1030 265.0142 15.08838774 82894,6917.884,95.438,540.836,538.662,0.0
52669.0,STARLINK-3972,PAYLOAD,2023-11-12 12:13:13,15.08849893,0.0001479,53.2187,1.7538,96.3925,263.7236,0.00023542,3.462e-05,0.0,0 STARLINK-3972,1 52669U 22053P   23316.50918921  .00003462  00000-0  23542-3 0  9994,2 52669  53.2187   1.7538 0001479  96.3925 263.7236 15.08849893 82997,6917.85,95.437,540.738,538.692,0.0
52669.0,STARLINK-3972,PAYLOAD,2023-11-13 10:28:37,15.08850986,0.0001641,53.2173,357.5884,84.228,275.8899,0.00025657,3.799e-05,0.0,0 STARLINK-3972,1 52669U 22053P   23317.43654825  .00003799  00000-0  25657-3 0  9999,2 52669  53.2173 357.5884 0001641  84.2280 275.8899 15.08850986 83130,6917.847,95.437,540.847,538.577,0.0
52669.0,STARLINK-3972,PAYLOAD,2023-11-13 20:00:56,15.08846606,0.0001714,53.2175,355.8055,87.1245,272.9944,0.00012505,1.703e-05,0.0,0 STARLINK-3972,1 52669U 22053P   23317.83398895  .00001703  00000-0  12505-3 0  9996,2 52669  53.2175 355.8055 0001714  87.1245 272.9944 15.08846606 83196,6917.86,95.437,540.911,538.539,0.0
52669.0,STARLINK-3972,PAYLOAD,2023-11-14 02:22:29,15.08845045,0.0001749,53.2181,354.6186,86.8148,273.3044,8.1709e-05,1.013e-05,0.0,0 STARLINK-3972,1 52669U 22053P   23318.09894906  .00001013  00000-0  81709-4 0  9996,2 52669  53.2181 354.6186 0001749  86.8148 273.3044 15.08845045 83238,6917.865,95.437,540.94,538.52,0.0
52669.0,STARLINK-3972,PAYLOAD,2023-11-14 08:44:01,15.0884185,0.0001762,53.2185,353.4276,87.1286,272.9908,3.6984e-05,3.01e-06,0.0,0 STARLINK-3972,1 52669U 22053P   23318.36391113  .00000301  00000-0  36984-4 0  9992,2 52669  53.2185 353.4276 0001762  87.1286 272.9908 15.08841850 83279,6917.875,95.437,540.959,538.521,0.0
52669.0,STARLINK-3972,PAYLOAD,2023-11-14 19:51:43,15.0884079,0.0001376,53.2167,351.344,94.3301,265.7848,-3.6156e-06,-3.45e-06,0.0,0 STARLINK-3972,1 52669U 22053P   23318.82759064 -.00000345  00000-0 -36156-5 0  9998,2 52669  53.2167 351.3440 0001376  94.3301 265.7848 15.08840790 83341,6917.878,95.438,540.695,538.791,0.0
52669.0,STARLINK-3972,PAYLOAD,2023-11-15 11:45:36,15.08827562,0.0002224,53.218,348.372,59.4743,300.6469,-0.00016244,-2.872e-05,0.0,0 STARLINK-3972,1 52669U 22053P   23319.49000450 -.00002872  00000-0 -16244-3 0  9991,2 52669  53.2180 348.3720 0002224  59.4743 300.6469 15.08827562 83449,6917.918,95.438,541.322,538.245,0.0
52669.0,STARLINK-3972,PAYLOAD,2023-11-15 19:42:32,15.08822467,0.0001753,53.218,346.8845,80.079,280.04,-0.00010949,-2.029e-05,0.0,0 STARLINK-3972,1 52669U 22053P   23319.82120953 -.00002029  00000-0 -10949-3 0  9999,2 52669  53.2180 346.8845 0001753  80.0790 280.0400 15.08822467 83498,6917.934,95.439,541.012,538.586,0.0
52669.0,STARLINK-3972,PAYLOAD,2023-11-16 08:25:37,15.08831856,0.0001557,53.2174,344.5057,68.1557,291.96,9.125e-05,1.164e-05,0.0,0 STARLINK-3972,1 52669U 22053P   23320.35112784  .00001164  00000-0  91250-4 0  9994,2 52669  53.2174 344.5057 0001557  68.1557 291.9600 15.08831856 83575,6917.905,95.438,540.847,538.693,0.0
52669.0,STARLINK-3972,PAYLOAD,2023-11-17 01:54:51,15.08848464,0.0002005,53.2175,341.2339,76.732,283.3896,0.00025595,3.789e-05,0.0,0 STARLINK-3972,1 52669U 22053P   23321.07976286  .00003789  00000-0  25595-3 0  9992,2 52669  53.2175 341.2339 0002005  76.7320 283.3896 15.08848464 83682,6917.855,95.437,541.107,538.332,0.0
52669.0,STARLINK-3972,PAYLOAD,2023-11-17 08:16:23,15.08859983,0.0001744,53.2169,340.0437,77.8391,282.2797,0.00071977,0.00011192,0.0,0 STARLINK-3972,1 52669U 22053P   23321.34472216  .00011192  00000-0  71977-3 0  9998,2 52669  53.2169 340.0437 0001744  77.8391 282.2797 15.08859983 83721,6917.819,95.436,540.891,538.478,0.0
52669.0,STARLINK-3972,PAYLOAD,2023-11-17 17:48:42,15.08854004,0.0001872,53.2181,338.2601,86.9822,273.1384,0.00027474,4.089e-05,0.0,0 STARLINK-3972,1 52669U 22053P   23321.74216143  .00004089  00000-0  27474-3 0  9997,2 52669  53.2181 338.2601 0001872  86.9822 273.1384 15.08854004 83785,6917.838,95.437,540.998,538.408,0.0
52669.0,STARLINK-3972,PAYLOAD,2023-11-18 01:45:38,15.08849846,0.0001998,53.219,336.7747,80.1053,280.0165,7.7595e-05,9.47e-06,0.0,0 STARLINK-3972,1 52669U 22053P   23322.07336071  .00000947  00000-0  77595-4 0  9996,2 52669  53.2190 336.7747 0001998  80.1053 280.0165 15.08849846 83838,6917.85,95.437,541.097,538.333,0.0
52669.0,STARLINK-3972,PAYLOAD,2023-11-18 06:31:47,15.08849055,0.0001947,53.2188,335.8822,92.9903,267.1312,3.4824e-05,2.66e-06,0.0,0 STARLINK-3972,1 52669U 22053P   23322.27207906  .00000266  00000-0  34824-4 0  9994,2 52669  53.2188 335.8822 0001947  92.9903 267.1312 15.08849055 83863,6917.853,95.437,541.065,538.371,0.0
52669.0,STARLINK-3972,PAYLOAD,2023-11-18 17:39:29,15.08844694,0.0001922,53.2181,333.8023,83.5844,276.5367,6.9384e-05,8.16e-06,0.0,0 STARLINK-3972,1 52669U 22053P   23322.73576016  .00000816  00000-0  69384-4 0  9996,2 52669  53.2181 333.8023 0001922  83.5844 276.5367 15.08844694 83936,6917.866,95.437,541.061,538.401,0.0
52669.0,STARLINK-3972,PAYLOAD,2023-11-19 09:33:20,15.08847736,0.0001776,53.2177,330.8267,88.1798,271.9398,8.1142e-05,1.004e-05,0.0,0 STARLINK-3972,1 52669U 22053P   23323.39815678  .00001004  00000-0  81142-4 0  9995,2 52669  53.2177 330.8267 0001776  88.1798 271.9398 15.08847736 84039,6917.857,95.437,540.95,538.493,0.0
52669.0,STARLINK-3972,PAYLOAD,2023-11-19 17:30:16,15.08842703,0.0001724,53.2174,329.3387,90.7251,269.3939,1.846e-05,6e-08,0.0,0 STARLINK-3972,1 52669U 22053P   23323.72935776  .00000006  00000-0  18460-4 0  9998,2 52669  53.2174 329.3387 0001724  90.7251 269.3939 15.08842703 84084,6917.872,95.437,540.93,538.544,0.0
52669.0,STARLINK-3972,PAYLOAD,2023-11-19 23:51:49,15.08836898,0.0001692,53.2171,328.1495,88.1625,271.9561,0.00016127,2.279e-05,0.0,0 STARLINK-3972,1 52669U 22053P   23323.99432191  .00002279  00000-0  16127-3 0  9991,2 52669  53.2171 328.1495 0001692  88.1625 271.9561 15.08836898 84121,6917.89,95.438,540.925,538.584,0.0
52669.0,STARLINK-3972,PAYLOAD,2023-11-20 07:48:44,15.08846198,0.0001781,53.2172,326.6621,87.2564,272.8632,0.00014787,2.066e-05,0.0,0 STARLINK-3972,1 52669U 22053P   23324.32551743  .00002066  00000-0  14787-3 0  9998,2 52669  53.2172 326.6621 0001781  87.2564 272.8632 15.08846198 84175,6917.861,95.437,540.959,538.494,0.0
52669.0,STARLINK-3972,PAYLOAD,2023-11-20 17:21:03,15.08847078,0.0001754,53.2171,324.8784,84.5881,275.5311,0.0001572,2.215e-05,0.0,0 STARLINK-3972,1 52669U 22053P   23324.72295663  .00002215  00000-0  15720-3 0  9992,2 52669  53.2171 324.8784 0001754  84.5881 275.5311 15.08847078 84235,6917.859,95.437,540.937,538.51,0.0
52669.0,STARLINK-3972,PAYLOAD,2023-11-21 09:14:54,15.0884854,0.0001801,53.2169,321.9032,89.7873,270.3326,0.00016151,2.284e-05,0.0,0 STARLINK-3972,1 52669U 22053P   23325.38535593  .00002284  00000-0  16151-3 0  9999,2 52669  53.2169 321.9032 0001801  89.7873 270.3326 15.08848540 84332,6917.854,95.437,540.965,538.473,0.0
52669.0,STARLINK-3972,PAYLOAD,2023-11-21 23:33:23,15.08840883,0.000171,53.2163,319.2265,99.3438,260.7747,0.00010486,1.381e-05,0.0,0 STARLINK-3972,1 52669U 22053P   23325.98151941  .00001381  00000-0  10486-3 0  9998,2 52669  53.2163 319.2265 0001710  99.3438 260.7747 15.08840883 84429,6917.878,95.437,540.926,538.56,0.0
52669.0,STARLINK-3972,PAYLOAD,2023-11-22 09:05:41,15.08855494,0.0001692,53.2161,317.4415,106.4923,253.6255,0.00026786,3.979e-05,0.0,0 STARLINK-3972,1 52669U 22053P   23326.37895112  .00003979  00000-0  26786-3 0  9992,2 52669  53.2161 317.4415 0001692 106.4923 253.6255 15.08855494 84487,6917.833,95.437,540.869,538.528,0.0
